format  = 'OEF2.0'       ! file format
rectype = 'ML'           ! record type (1L/ML)
refsys  = ECLM J2000     ! default reference system
END_OF_HEADER
433
! Keplerian elements: a, e, i, long. node, arg. peric., mean anomaly
 KEP   1.4580632452014517E+00   0.222785069264007   10.829197423797  304.390234169040  178.657316225135  183.884026368892
 MJD     53699.537843440 TDT
 MAG  10.844  0.460
! Non-gravitational parameters: model used, number of model parameters, dimension
 LSP   0  0    6
! PERIHELION   1.1332285241279432E+00
! APHELION   1.7828979662749602E+00
! ANODE   7.6714546550187301E-01
! DNODE   1.4840037593463146E-01
! MOID   1.4839393420148872E-01
! PERIOD   6.4307699026020032E+02
! PHA F
! VINFTY     1.2545861393840
! U_PAR 0.0
! ORB_TYPE Amor  
! RMS    1.65562E-10   9.70227E-09   2.31164E-06   9.00271E-06   1.01067E-05   2.91054E-06
 COV   2.741070910217469E-20  1.875377119598089E-20 -8.547711150854404E-18
 COV  -1.424161869536833E-16  2.069981909594347E-17  1.020861252147022E-16
 COV   9.413409432515281E-17  3.679442347840267E-15  1.576108071279716E-14
 COV  -1.550739655716465E-14  4.339298265417407E-15  5.343682955647460E-12
 COV   2.651892644726515E-12 -2.645732678444339E-12  2.362781905795561E-13
 COV   8.104875730482198E-11 -8.081646039384975E-11  2.806434537696526E-12
 COV   1.021449579122188E-10 -1.594231888552837E-11  8.471217706908019E-12
 COR   1.000000000000000E+00  1.167494930651770E-02 -2.233414651547317E-02
 COR  -9.554897626880261E-02  1.237080461677989E-02  2.118525340584048E-01
 COR   1.000000000000000E+00  1.640545147426220E-01  1.804427090214044E-01
 COR  -1.581455411525347E-01  1.536643442357149E-01  1.000000000000000E+00
 COR   1.274272811732347E-01 -1.132445089573899E-01  3.511804841287464E-02
 COR   1.000000000000000E+00 -8.882151533922009E-01  1.071047704381259E-01
 COR   1.000000000000000E+00 -5.419635806199125E-01  1.000000000000000E+00
